IRIDIUM 150             
1 43257U 18030J   25256.93457709  .00000009  00000+0 -38994-5 0  9994
2 43257  86.3951  45.9315 0002270  89.4122 270.7334 14.34217380390561
IRIDIUM 143             
1 43258U 18030K   25257.12485570  .00000097  00000+0  27647-4 0  9992
2 43258  86.3956  45.9334 0002549  86.8515 273.2973 14.34218341390525
IRIDIUM 161             
1 43478U 18047C   25257.09360990  .00000318  00000+0  88425-4 0  9995
2 43478  86.4538 203.7871 0002131  87.3278 272.8167 14.43279763385311
IRIDIUM 152             
1 43479U 18047D   25257.09757409  .00000236  00000+0  77124-4 0  9994
2 43479  86.4012 203.6464 0002253  89.1873 270.9581 14.34218323382919
IRIDIUM 147             
1 43480U 18047E   25257.10391557  .00000231  00000+0  75587-4 0  9992
2 43480  86.4015 203.6441 0002148  82.9866 277.1574 14.34218316382918
IRIDIUM 110             
1 43481U 18047F   25257.24979358  .00000136  00000+0  41424-4 0  9996
2 43481  86.4014 203.6675 0001824  91.0539 269.0866 14.34217519382924
IRIDIUM 162             
1 43482U 18047G   25257.08730002  .00000280  00000+0  77284-4 0  9993
2 43482  86.4536 203.6842 0002176  92.0656 268.0794 14.43277645385302
IRIDIUM 160             
1 43569U 18061A   25257.19562974  .00000167  00000+0  52494-4 0  9998
2 43569  86.4046 172.1339 0001953  85.7094 274.4325 14.34218638373813
